IRIDIUM 112             
1 41925U 17003J   25059.54483983  .00000597  00000+0  20615-3 0  9994
2 41925  86.3927 286.2169 0002100  91.7585 268.3851 14.34217548425384
IRIDIUM 111             
1 41926U 17003K   25060.16007220  .00000039  00000+0  68707-5 0  9998
2 41926  86.3930 286.0197 0002194  84.4873 275.6573 14.34216592425526
IRIDIUM 113             
1 42803U 17039A   25059.72142599  .00000658  00000+0  22791-3 0  9999
2 42803  86.4040 160.0642 0002391 106.9734 253.1724 14.34216911403323
IRIDIUM 123             
1 42804U 17039B   25059.76290332  .00000290  00000+0  96507-4 0  9992
2 42804  86.4027 191.4621 0002188  90.4236 269.7210 14.34216592402093
IRIDIUM 120             
1 42805U 17039C   25059.71508183  .00000009  00000+0 -37039-5 0  9999
2 42805  86.4035 159.9111 0001978  89.6735 270.4687 14.34218092403316
IRIDIUM 115             
1 42806U 17039D   25059.31162669  .00001237  00000+0  36160-3 0  9996
2 42806  86.4569 160.1424 0002717  86.6613 273.4898 14.43284719405918
IRIDIUM 118             
1 42807U 17039E   25059.72484712  .00000196  00000+0  63011-4 0  9997
2 42807  86.4032 191.4786 0002079  99.0245 261.1186 14.34219044402080
IRIDIUM 117             
1 42808U 17039F   25059.67410542  .00000168  00000+0  52788-4 0  9990
2 42808  86.4028 191.4617 0002363  91.1133 269.0333 14.34219537402105
